[ {"name": "STARLINK-37109", "line1": "1 68666U 26077E   26158.65843551  .00012625  00000+0  39248-3 0  9997", "line2": "2 68666  97.2855  30.0063 0001700  94.0472 266.0965 15.33463688  8948"}, {"name": "STARLINK-36295", "line1": "1 68667U 26077F   26158.65573432  .00020576  00000+0  63809-3 0  9990", "line2": "2 68667  97.2855  30.0100 0001646  83.9704 276.1726 15.33436389  8940"}, {"name": "STARLINK-37221", "line1": "1 68668U 26077G   26158.63398174  .00022374  00000+0  69359-3 0  9991", "line2": "2 68668  97.2863  30.0371 0001747  84.0008 276.1434 15.33431894  8943"}, {"name": "STARLINK-37302", "line1": "1 68669U 26077H   26158.65029867  .00018296  00000+0  56748-3 0  9990", "line2": "2 68669  97.2853  30.0184 0001824  78.3666 281.7781 15.33455849  8940"}, {"name": "STARLINK-37298", "line1": "1 68670U 26077J   26158.58776666  .00019122  00000+0  59400-3 0  9997", "line2": "2 68670  97.2867  29.9487 0001530  90.2855 269.8563 15.33398269  8933"}, {"name": "STARLINK-37224", "line1": "1 68671U 26077K   26158.64757698  .00019387  00000+0  60151-3 0  9997", "line2": "2 68671  97.2856  30.0204 0001650  84.7746 275.3685 15.33433031  8947"}, {"name": "STARLINK-37296", "line1": "1 68672U 26077L   26158.64487671  .00018196  00000+0  56548-3 0  9991", "line2": "2 68672  97.2851  30.0222 0001752  87.6740 272.4703 15.33394806  8947"}, {"name": "STARLINK-37316", "line1": "1 68673U 26077M   26158.64213818  .00021543  00000+0  66810-3 0  9995", "line2": "2 68673  97.2856  30.0301 0001829  81.1532 278.9918 15.33426570  8947"}, {"name": "STARLINK-36672", "line1": "1 68674U 26077N   26158.63942031  .00026097  00000+0  80818-3 0  9994", "line2": "2 68674  97.2850  30.0295 0001880  86.0661 274.0797 15.33432905  8949"}, {"name": "STARLINK-36669", "line1": "1 68675U 26077P   26158.63670168  .00029518  00000+0  91350-3 0  9998", "line2": "2 68675  97.2855  30.0359 0001885  85.5992 274.5466 15.33429896  8945"}, {"name": "STARLINK-37312", "line1": "1 68676U 26077Q   26158.62310646  .00023591  00000+0  73106-3 0  9994", "line2": "2 68676  97.2856  30.0538 0001943  95.7240 264.4225 15.33431015  8947"}, {"name": "STARLINK-36168", "line1": "1 68677U 26077R   26158.63126322  .00023276  00000+0  72156-3 0  9996", "line2": "2 68677  97.2850  30.0407 0001844  85.7590 274.3864 15.33423312  8944"}, {"name": "STARLINK-37122", "line1": "1 68678U 26077S   26158.62854282  .00023880  00000+0  74016-3 0  9997", "line2": "2 68678  97.2855  30.0468 0001792  89.6026 270.5422 15.33423550  8948"}, {"name": "STARLINK-37310", "line1": "1 68679U 26077T   26158.62582267  .00019435  00000+0  60275-3 0  9992", "line2": "2 68679  97.2854  30.0515 0003891 119.2374 240.9258 15.33440972  8944"}, {"name": "STARLINK-37306", "line1": "1 68680U 26077U   26158.61766966  .00016277  00000+0  50572-3 0  9993", "line2": "2 68680  97.2854  30.0595 0001800  85.6942 274.4506 15.33426074  8944"}, {"name": "STARLINK-37307", "line1": "1 68681U 26077V   26158.62038632  .00023828  00000+0  73850-3 0  9991", "line2": "2 68681  97.2855  30.0569 0001890  90.9926 269.1533 15.33425480  8948"}, {"name": "STARLINK-37300", "line1": "1 68682U 26077W   26158.60679159  .00018274  00000+0  56721-3 0  9992", "line2": "2 68682  97.2841  30.0754 0002266 106.8097 253.3394 15.33431961  8945"}, {"name": "STARLINK-37304", "line1": "1 68683U 26077X   26158.60951064  .00033959  00000+0  10498-2 0  9998", "line2": "2 68683  97.2858  30.0725 0001831 105.0315 255.1130 15.33433758  8947"}, {"name": "STARLINK-37287", "line1": "1 68684U 26077Y   26158.61223127  .00027217  00000+0  84272-3 0  9994", "line2": "2 68684  97.2861  30.0687 0001777  86.4725 273.6720 15.33429599  8943"}, {"name": "STARLINK-36278", "line1": "1 68685U 26077Z   26158.65032442  .00182552  00000+0  11958-2 0  9991", "line2": "2 68685  97.2850  32.0045 0000808 111.0942 249.0410 15.75248208  9072"}, {"name": "STARLINK-37213", "line1": "1 68686U 26077AA  26158.61494988  .00022459  00000+0  69602-3 0  9994", "line2": "2 68686  97.2830  30.0595 0002786 114.1609 245.9925 15.33438216  8945"}, {"name": "STARLINK-37358", "line1": "1 68699U 26081A   26158.76108101  .00071405  00000+0  21008-2 0  9990", "line2": "2 68699  53.1607 335.6920 0000988  73.4995 286.6116 15.34455569  8535"}, {"name": "STARLINK-37334", "line1": "1 68700U 26081B   26158.75900087  .00023056  00000+0  69204-3 0  9995", "line2": "2 68700  53.1605 335.6791 0001310  90.1006 270.0147 15.34371529  8535"}, {"name": "STARLINK-36955", "line1": "1 68701U 26081C   26158.75689512  .00020227  00000+0  60875-3 0  9995", "line2": "2 68701  53.1607 335.6647 0001580  92.0005 268.1178 15.34368856  8538"}, {"name": "STARLINK-36275", "line1": "1 68702U 26081D   26158.75479402  .00032174  00000+0  95976-3 0  9995", "line2": "2 68702  53.1611 335.6605 0001946 106.0283 254.0934 15.34384164  8532"}, {"name": "STARLINK-36271", "line1": "1 68703U 26081E   26158.75268743  .00035597  00000+0  10603-2 0  9995", "line2": "2 68703  53.1610 335.6403 0001431  88.8826 271.2340 15.34382886  8538"}, {"name": "STARLINK-37356", "line1": "1 68704U 26081F   26158.83337963  .00022308  00000+0  67010-3 0  9997", "line2": "2 68704  53.1605 335.2398 0001070  84.7531  12.9639 15.34366978  6037"}, {"name": "STARLINK-35369", "line1": "1 68705U 26081G   26158.75545682  .00024568  00000+0  71315-3 0  9991", "line2": "2 68705  53.1605 335.6558 0001348  88.5194 271.5964 15.35389401  8533"}, {"name": "STARLINK-37319", "line1": "1 68706U 26081H   26158.83337963  .00034665  00000+0  10008-2 0  9992", "line2": "2 68706  53.1603 335.1712 0001421  85.7788  54.6788 15.35378763  6035"}, {"name": "STARLINK-37112", "line1": "1 68707U 26081J   26158.68125334  .00026672  00000+0  79804-3 0  9992", "line2": "2 68707  53.1601 335.9143 0001052  98.1417 261.9705 15.34387666  8526"}]