OBJECT_NAME,OBJECT_ID,EPOCH,MEAN_MOTION,ECCENTRICITY,INCLINATION,RA_OF_ASC_NODE,ARG_OF_PERICENTER,MEAN_ANOMALY,EPHEMERIS_TYPE,CLASSIFICATION_TYPE,NORAD_CAT_ID,ELEMENT_SET_NO,REV_AT_EPOCH,BSTAR,MEAN_MOTION_DOT,MEAN_MOTION_DDOT
STARLINK-37109,2026-077E,2026-06-07T15:48:08.828064,15.33463688,.00017,97.2855,30.0063,94.0472,266.0965,0,U,68666,999,894,.39248E-3,.12625E-3,0
STARLINK-36295,2026-077F,2026-06-07T15:44:15.445248,15.33436389,.0001646,97.2855,30.0100,83.9704,276.1726,0,U,68667,999,894,.63809E-3,.20576E-3,0
STARLINK-37221,2026-077G,2026-06-07T15:12:56.022336,15.33431894,.0001747,97.2863,30.0371,84.0008,276.1434,0,U,68668,999,894,.69359E-3,.22374E-3,0
STARLINK-37302,2026-077H,2026-06-07T15:36:25.805088,15.33455849,.0001824,97.2853,30.0184,78.3666,281.7781,0,U,68669,999,894,.56748E-3,.18296E-3,0
STARLINK-37298,2026-077J,2026-06-07T14:06:23.039424,15.33398269,.000153,97.2867,29.9487,90.2855,269.8563,0,U,68670,999,893,.594E-3,.19122E-3,0
STARLINK-37224,2026-077K,2026-06-07T15:32:30.651072,15.33433031,.000165,97.2856,30.0204,84.7746,275.3685,0,U,68671,999,894,.60151E-3,.19387E-3,0
STARLINK-37296,2026-077L,2026-06-07T15:28:37.347744,15.33394806,.0001752,97.2851,30.0222,87.6740,272.4703,0,U,68672,999,894,.56548E-3,.18196E-3,0
STARLINK-37316,2026-077M,2026-06-07T15:24:40.738752,15.33426570,.0001829,97.2856,30.0301,81.1532,278.9918,0,U,68673,999,894,.6681E-3,.21543E-3,0
STARLINK-36672,2026-077N,2026-06-07T15:20:45.914784,15.33432905,.000188,97.2850,30.0295,86.0661,274.0797,0,U,68674,999,894,.80818E-3,.26097E-3,0
STARLINK-36669,2026-077P,2026-06-07T15:16:51.025152,15.33429896,.0001885,97.2855,30.0359,85.5992,274.5466,0,U,68675,999,894,.9135E-3,.29518E-3,0
STARLINK-37312,2026-077Q,2026-06-07T14:57:16.398144,15.33431015,.0001943,97.2856,30.0538,95.7240,264.4225,0,U,68676,999,894,.73106E-3,.23591E-3,0
STARLINK-36168,2026-077R,2026-06-07T15:09:01.142208,15.33423312,.0001844,97.2850,30.0407,85.7590,274.3864,0,U,68677,999,894,.72156E-3,.23276E-3,0
STARLINK-37122,2026-077S,2026-06-07T15:05:06.099648,15.33423550,.0001792,97.2855,30.0468,89.6026,270.5422,0,U,68678,999,894,.74016E-3,.2388E-3,0
STARLINK-37310,2026-077T,2026-06-07T15:01:11.078688,15.33440972,.0003891,97.2854,30.0515,119.2374,240.9258,0,U,68679,999,894,.60275E-3,.19435E-3,0
STARLINK-37306,2026-077U,2026-06-07T14:49:26.658624,15.33426074,.00018,97.2854,30.0595,85.6942,274.4506,0,U,68680,999,894,.50572E-3,.16277E-3,0
STARLINK-37307,2026-077V,2026-06-07T14:53:21.378048,15.33425480,.000189,97.2855,30.0569,90.9926,269.1533,0,U,68681,999,894,.7385E-3,.23828E-3,0
STARLINK-37300,2026-077W,2026-06-07T14:33:46.793376,15.33431961,.0002266,97.2841,30.0754,106.8097,253.3394,0,U,68682,999,894,.56721E-3,.18274E-3,0
STARLINK-37304,2026-077X,2026-06-07T14:37:41.719296,15.33433758,.0001831,97.2858,30.0725,105.0315,255.1130,0,U,68683,999,894,.10498E-2,.33959E-3,0
STARLINK-37287,2026-077Y,2026-06-07T14:41:36.781728,15.33429599,.0001777,97.2861,30.0687,86.4725,273.6720,0,U,68684,999,894,.84272E-3,.27217E-3,0
STARLINK-36278,2026-077Z,2026-06-07T15:36:28.029888,15.75248208,.0000808,97.2850,32.0045,111.0942,249.0410,0,U,68685,999,907,.11958E-2,.182552E-2,0
STARLINK-37213,2026-077AA,2026-06-07T14:45:31.669632,15.33438216,.0002786,97.2830,30.0595,114.1609,245.9925,0,U,68686,999,894,.69602E-3,.22459E-3,0
STARLINK-37358,2026-081A,2026-06-07T18:15:57.399264,15.34455569,.0000988,53.1607,335.6920,73.4995,286.6116,0,U,68699,999,853,.21008E-2,.71405E-3,0
STARLINK-37334,2026-081B,2026-06-07T18:12:57.675168,15.34371529,.000131,53.1605,335.6791,90.1006,270.0147,0,U,68700,999,853,.69204E-3,.23056E-3,0
STARLINK-36955,2026-081C,2026-06-07T18:09:55.738368,15.34368856,.000158,53.1607,335.6647,92.0005,268.1178,0,U,68701,999,853,.60875E-3,.20227E-3,0
STARLINK-36275,2026-081D,2026-06-07T18:06:54.203328,15.34384164,.0001946,53.1611,335.6605,106.0283,254.0934,0,U,68702,999,853,.95976E-3,.32174E-3,0
STARLINK-36271,2026-081E,2026-06-07T18:03:52.193952,15.34382886,.0001431,53.1610,335.6403,88.8826,271.2340,0,U,68703,999,853,.10603E-2,.35597E-3,0
STARLINK-37356,2026-081F,2026-06-07T20:00:04.000032,15.34366978,.000107,53.1605,335.2398,84.7531,12.9639,0,U,68704,999,603,.6701E-3,.22308E-3,0
STARLINK-35369,2026-081G,2026-06-07T18:07:51.469248,15.35389401,.0001348,53.1605,335.6558,88.5194,271.5964,0,U,68705,999,853,.71315E-3,.24568E-3,0
STARLINK-37319,2026-081H,2026-06-07T20:00:04.000032,15.35378763,.0001421,53.1603,335.1712,85.7788,54.6788,0,U,68706,999,603,.10008E-2,.34665E-3,0
STARLINK-37112,2026-081J,2026-06-07T16:21:00.288576,15.34387666,.0001052,53.1601,335.9143,98.1417,261.9705,0,U,68707,999,852,.79804E-3,.26672E-3,0
